[{"col1":"1 13601U 23001EAE 25166.66573014  .00030938  00000+0  12818-2 0  9996"},{"col1":"2 13601 045.0000 000.0000 0000002 016.8572 294.0549 04.72570173766556"},{"col1":"687"},{"col1":"3184.52978"},{"col1":"5315.47022"}]
